ONEWEB-0015             
1 61594U 24188A   25361.18393956 -.00000514  00000+0 -14849-2 0  9998
2 61594  87.8841  55.3489 0002319 110.3728 249.7649 13.11417517 61913
ONEWEB-0687             
1 61595U 24188B   25361.15942221  .00000018  00000+0  13011-4 0  9990
2 61595  87.9082  40.0973 0001857 115.4724 244.6599 13.17647940 63246
ONEWEB-0688             
1 61596U 24188C   25361.11217670  .00000082  00000+0  17713-3 0  9993
2 61596  87.9084  40.1073 0002953 113.5356 246.6087 13.17649133 63238
ONEWEB-0689             
1 61597U 24188D   25361.14157199  .00000444  00000+0  12181-2 0  9991
2 61597  87.8833  55.2908 0001590 109.3052 250.8249 13.11415881 61900
ONEWEB-0690             
1 61598U 24188E   25361.15174233  .00000538  00000+0  14819-2 0  9995
2 61598  87.8857  55.3054 0002118  81.9705 278.1663 13.11414722 62083
ONEWEB-0691             
1 61599U 24188F   25361.14665636  .00000525  00000+0  14448-2 0  9991
2 61599  87.8835  55.2040 0002107 109.5448 250.5908 13.11414722 61932
ONEWEB-0692             
1 61600U 24188G   25361.16698865  .00000026  00000+0  38573-4 0  9999
2 61600  87.8837  55.3454 0000876  93.1562 266.9667 13.11414191 61925
ONEWEB-0693             
1 61601U 24188H   25361.12398431  .00000024  00000+0  27438-4 0  9998
2 61601  87.9087  40.1248 0002486  84.0001 276.1414 13.17650791 63225
ONEWEB-0695             
1 61602U 24188J   25361.14326521  .00000595  00000+0  16427-2 0  9999
2 61602  87.8841  55.3394 0001304 111.5422 248.5845 13.11416429 61911
ONEWEB-0697             
1 61603U 24188K   25361.17546334 -.00000348  00000+0 -10174-2 0  9990
2 61603  87.8840  55.3231 0000999  91.0177 269.1066 13.11414238 61908
ONEWEB-0698             
1 61604U 24188L   25361.15344707  .00001669  00000+0  46741-2 0  9993
2 61604  87.8842  55.3426 0001269  54.4851 305.6395 13.11406287 61928
ONEWEB-0699             
1 61605U 24188M   25361.25843016  .00000650  00000+0  18270-2 0  9997
2 61605  87.8806  70.5362 0001140  91.4116 268.7142 13.10375989 60796
ONEWEB-0700             
1 61606U 24188N   25361.26010376  .00000597  00000+0  16738-2 0  9991
2 61606  87.8818  70.4226 0001145 122.3964 237.7274 13.10375414 60782
ONEWEB-0701             
1 61607U 24188P   25361.20033534  .00000433  00000+0  12045-2 0  9993
2 61607  87.8801  70.5484 0000941  90.4202 269.7033 13.10370703 60789
ONEWEB-0702             
1 61608U 24188Q   25361.19920329 -.00000128  00000+0 -39648-3 0  9991
2 61608  87.8833  55.2173 0000723 105.9262 254.1946 13.11419499 61943
ONEWEB-0704             
1 61609U 24188R   25361.18871378  .00000709  00000+0  19961-2 0  9998
2 61609  87.8813  70.5174 0000820 118.8967 241.2243 13.10373858 60769
ONEWEB-0705             
1 61610U 24188S   25361.19369563  .00000707  00000+0  19894-2 0  9992
2 61610  87.8806  70.5371 0001782 142.1682 217.9571 13.10372985 52938
