[{"OBJECT_NAME":"ONEWEB-0015","OBJECT_ID":"2024-188A","EPOCH":"2025-12-27T04:24:52.377984","MEAN_MOTION":13.11417517,"ECCENTRICITY":0.00023192,"INCLINATION":87.8841,"RA_OF_ASC_NODE":55.3489,"ARG_OF_PERICENTER":110.3728,"MEAN_ANOMALY":249.7649,"EPHEMERIS_TYPE":0,"CLASSIFICATION_TYPE":"U","NORAD_CAT_ID":61594,"ELEMENT_SET_NO":999,"REV_AT_EPOCH":6191,"BSTAR":-0.0014848708,"MEAN_MOTION_DOT":-5.14e-6,"MEAN_MOTION_DDOT":0},{"OBJECT_NAME":"ONEWEB-0687","OBJECT_ID":"2024-188B","EPOCH":"2025-12-27T03:49:34.078944","MEAN_MOTION":13.1764794,"ECCENTRICITY":0.00018575,"INCLINATION":87.9082,"RA_OF_ASC_NODE":40.0973,"ARG_OF_PERICENTER":115.4724,"MEAN_ANOMALY":244.6599,"EPHEMERIS_TYPE":0,"CLASSIFICATION_TYPE":"U","NORAD_CAT_ID":61595,"ELEMENT_SET_NO":999,"REV_AT_EPOCH":6324,"BSTAR":1.3011007e-5,"MEAN_MOTION_DOT":1.8e-7,"MEAN_MOTION_DDOT":0},{"OBJECT_NAME":"ONEWEB-0688","OBJECT_ID":"2024-188C","EPOCH":"2025-12-27T02:41:32.066880","MEAN_MOTION":13.17649133,"ECCENTRICITY":0.00029534,"INCLINATION":87.9084,"RA_OF_ASC_NODE":40.1073,"ARG_OF_PERICENTER":113.5356,"MEAN_ANOMALY":246.6087,"EPHEMERIS_TYPE":0,"CLASSIFICATION_TYPE":"U","NORAD_CAT_ID":61596,"ELEMENT_SET_NO":999,"REV_AT_EPOCH":6323,"BSTAR":0.00017712699,"MEAN_MOTION_DOT":8.2e-7,"MEAN_MOTION_DDOT":0},{"OBJECT_NAME":"ONEWEB-0689","OBJECT_ID":"2024-188D","EPOCH":"2025-12-27T03:23:51.819936","MEAN_MOTION":13.11415881,"ECCENTRICITY":0.00015907,"INCLINATION":87.8833,"RA_OF_ASC_NODE":55.2908,"ARG_OF_PERICENTER":109.3052,"MEAN_ANOMALY":250.8249,"EPHEMERIS_TYPE":0,"CLASSIFICATION_TYPE":"U","NORAD_CAT_ID":61597,"ELEMENT_SET_NO":999,"REV_AT_EPOCH":6190,"BSTAR":0.0012181473,"MEAN_MOTION_DOT":4.44e-6,"MEAN_MOTION_DDOT":0},{"OBJECT_NAME":"ONEWEB-0690","OBJECT_ID":"2024-188E","EPOCH":"2025-12-27T03:38:30.537312","MEAN_MOTION":13.11414722,"ECCENTRICITY":0.0002118,"INCLINATION":87.8857,"RA_OF_ASC_NODE":55.3054,"ARG_OF_PERICENTER":81.9705,"MEAN_ANOMALY":278.1663,"EPHEMERIS_TYPE":0,"CLASSIFICATION_TYPE":"U","NORAD_CAT_ID":61598,"ELEMENT_SET_NO":999,"REV_AT_EPOCH":6208,"BSTAR":0.001481947,"MEAN_MOTION_DOT":5.38e-6,"MEAN_MOTION_DDOT":0},{"OBJECT_NAME":"ONEWEB-0691","OBJECT_ID":"2024-188F","EPOCH":"2025-12-27T03:31:11.109504","MEAN_MOTION":13.11414722,"ECCENTRICITY":0.00021072,"INCLINATION":87.8835,"RA_OF_ASC_NODE":55.204,"ARG_OF_PERICENTER":109.5448,"MEAN_ANOMALY":250.5908,"EPHEMERIS_TYPE":0,"CLASSIFICATION_TYPE":"U","NORAD_CAT_ID":61599,"ELEMENT_SET_NO":999,"REV_AT_EPOCH":6193,"BSTAR":0.0014447932,"MEAN_MOTION_DOT":5.25e-6,"MEAN_MOTION_DDOT":0},{"OBJECT_NAME":"ONEWEB-0692","OBJECT_ID":"2024-188G","EPOCH":"2025-12-27T04:00:27.819360","MEAN_MOTION":13.11414191,"ECCENTRICITY":8.765e-5,"INCLINATION":87.8837,"RA_OF_ASC_NODE":55.3454,"ARG_OF_PERICENTER":93.1562,"MEAN_ANOMALY":266.9667,"EPHEMERIS_TYPE":0,"CLASSIFICATION_TYPE":"U","NORAD_CAT_ID":61600,"ELEMENT_SET_NO":999,"REV_AT_EPOCH":6192,"BSTAR":3.8572747e-5,"MEAN_MOTION_DOT":2.6e-7,"MEAN_MOTION_DDOT":0},{"OBJECT_NAME":"ONEWEB-0693","OBJECT_ID":"2024-188H","EPOCH":"2025-12-27T02:58:32.244384","MEAN_MOTION":13.17650791,"ECCENTRICITY":0.00024867,"INCLINATION":87.9087,"RA_OF_ASC_NODE":40.1248,"ARG_OF_PERICENTER":84.0001,"MEAN_ANOMALY":276.1414,"EPHEMERIS_TYPE":0,"CLASSIFICATION_TYPE":"U","NORAD_CAT_ID":61601,"ELEMENT_SET_NO":999,"REV_AT_EPOCH":6322,"BSTAR":2.7437977e-5,"MEAN_MOTION_DOT":2.4e-7,"MEAN_MOTION_DDOT":0},{"OBJECT_NAME":"ONEWEB-0695","OBJECT_ID":"2024-188J","EPOCH":"2025-12-27T03:26:18.114144","MEAN_MOTION":13.11416429,"ECCENTRICITY":0.00013043,"INCLINATION":87.8841,"RA_OF_ASC_NODE":55.3394,"ARG_OF_PERICENTER":111.5422,"MEAN_ANOMALY":248.5845,"EPHEMERIS_TYPE":0,"CLASSIFICATION_TYPE":"U","NORAD_CAT_ID":61602,"ELEMENT_SET_NO":999,"REV_AT_EPOCH":6191,"BSTAR":0.0016426631,"MEAN_MOTION_DOT":5.95e-6,"MEAN_MOTION_DDOT":0},{"OBJECT_NAME":"ONEWEB-0697","OBJECT_ID":"2024-188K","EPOCH":"2025-12-27T04:12:40.032576","MEAN_MOTION":13.11414238,"ECCENTRICITY":9.994e-5,"INCLINATION":87.884,"RA_OF_ASC_NODE":55.3231,"ARG_OF_PERICENTER":91.0177,"MEAN_ANOMALY":269.1066,"EPHEMERIS_TYPE":0,"CLASSIFICATION_TYPE":"U","NORAD_CAT_ID":61603,"ELEMENT_SET_NO":999,"REV_AT_EPOCH":6190,"BSTAR":-0.001017404,"MEAN_MOTION_DOT":-3.48e-6,"MEAN_MOTION_DDOT":0},{"OBJECT_NAME":"ONEWEB-0698","OBJECT_ID":"2024-188L","EPOCH":"2025-12-27T03:40:57.826848","MEAN_MOTION":13.11406287,"ECCENTRICITY":0.00012693,"INCLINATION":87.8842,"RA_OF_ASC_NODE":55.3426,"ARG_OF_PERICENTER":54.4851,"MEAN_ANOMALY":305.6395,"EPHEMERIS_TYPE":0,"CLASSIFICATION_TYPE":"U","NORAD_CAT_ID":61604,"ELEMENT_SET_NO":999,"REV_AT_EPOCH":6192,"BSTAR":0.004674139,"MEAN_MOTION_DOT":1.669e-5,"MEAN_MOTION_DDOT":0},{"OBJECT_NAME":"ONEWEB-0699","OBJECT_ID":"2024-188M","EPOCH":"2025-12-27T06:12:08.365824","MEAN_MOTION":13.10375989,"ECCENTRICITY":0.00011405,"INCLINATION":87.8806,"RA_OF_ASC_NODE":70.5362,"ARG_OF_PERICENTER":91.4116,"MEAN_ANOMALY":268.7142,"EPHEMERIS_TYPE":0,"CLASSIFICATION_TYPE":"U","NORAD_CAT_ID":61605,"ELEMENT_SET_NO":999,"REV_AT_EPOCH":6079,"BSTAR":0.0018269935,"MEAN_MOTION_DOT":6.5e-6,"MEAN_MOTION_DDOT":0},{"OBJECT_NAME":"ONEWEB-0700","OBJECT_ID":"2024-188N","EPOCH":"2025-12-27T06:14:32.964864","MEAN_MOTION":13.10375414,"ECCENTRICITY":0.00011457,"INCLINATION":87.8818,"RA_OF_ASC_NODE":70.4226,"ARG_OF_PERICENTER":122.3964,"MEAN_ANOMALY":237.7274,"EPHEMERIS_TYPE":0,"CLASSIFICATION_TYPE":"U","NORAD_CAT_ID":61606,"ELEMENT_SET_NO":999,"REV_AT_EPOCH":6078,"BSTAR":0.0016738328,"MEAN_MOTION_DOT":5.97e-6,"MEAN_MOTION_DDOT":0},{"OBJECT_NAME":"ONEWEB-0701","OBJECT_ID":"2024-188P","EPOCH":"2025-12-27T04:48:28.973376","MEAN_MOTION":13.10370703,"ECCENTRICITY":9.41e-5,"INCLINATION":87.8801,"RA_OF_ASC_NODE":70.5484,"ARG_OF_PERICENTER":90.4202,"MEAN_ANOMALY":269.7033,"EPHEMERIS_TYPE":0,"CLASSIFICATION_TYPE":"U","NORAD_CAT_ID":61607,"ELEMENT_SET_NO":999,"REV_AT_EPOCH":6078,"BSTAR":0.0012045137,"MEAN_MOTION_DOT":4.33e-6,"MEAN_MOTION_DDOT":0},{"OBJECT_NAME":"ONEWEB-0702","OBJECT_ID":"2024-188Q","EPOCH":"2025-12-27T04:46:51.164256","MEAN_MOTION":13.11419499,"ECCENTRICITY":7.238e-5,"INCLINATION":87.8833,"RA_OF_ASC_NODE":55.2173,"ARG_OF_PERICENTER":105.9262,"MEAN_ANOMALY":254.1946,"EPHEMERIS_TYPE":0,"CLASSIFICATION_TYPE":"U","NORAD_CAT_ID":61608,"ELEMENT_SET_NO":999,"REV_AT_EPOCH":6194,"BSTAR":-0.00039647979,"MEAN_MOTION_DOT":-1.28e-6,"MEAN_MOTION_DDOT":0},{"OBJECT_NAME":"ONEWEB-0704","OBJECT_ID":"2024-188R","EPOCH":"2025-12-27T04:31:44.870592","MEAN_MOTION":13.10373858,"ECCENTRICITY":8.209e-5,"INCLINATION":87.8813,"RA_OF_ASC_NODE":70.5174,"ARG_OF_PERICENTER":118.8967,"MEAN_ANOMALY":241.2243,"EPHEMERIS_TYPE":0,"CLASSIFICATION_TYPE":"U","NORAD_CAT_ID":61609,"ELEMENT_SET_NO":999,"REV_AT_EPOCH":6076,"BSTAR":0.0019960638,"MEAN_MOTION_DOT":7.09e-6,"MEAN_MOTION_DDOT":0},{"OBJECT_NAME":"ONEWEB-0705","OBJECT_ID":"2024-188S","EPOCH":"2025-12-27T04:38:55.302432","MEAN_MOTION":13.10372985,"ECCENTRICITY":0.00017824,"INCLINATION":87.8806,"RA_OF_ASC_NODE":70.5371,"ARG_OF_PERICENTER":142.1682,"MEAN_ANOMALY":217.9571,"EPHEMERIS_TYPE":0,"CLASSIFICATION_TYPE":"U","NORAD_CAT_ID":61610,"ELEMENT_SET_NO":999,"REV_AT_EPOCH":5293,"BSTAR":0.001989372,"MEAN_MOTION_DOT":7.07e-6,"MEAN_MOTION_DDOT":0}]
